COMMENT,ORIGINATOR,NORAD_CAT_ID,OBJECT_NAME,OBJECT_TYPE,CLASSIFICATION_TYPE,INTLDES,EPOCH,EPOCH_MICROSECONDS,MEAN_MOTION,ECCENTRICITY,INCLINATION,RA_OF_ASC_NODE,ARG_OF_PERICENTER,MEAN_ANOMALY,EPHEMERIS_TYPE,ELEMENT_SET_NO,REV_AT_EPOCH,BSTAR,MEAN_MOTION_DOT,MEAN_MOTION_DDOT,FILE,TLE_LINE0,TLE_LINE1,TLE_LINE2,OBJECT_ID,OBJECT_NUMBER,SEMIMAJOR_AXIS,PERIOD,APOGEE,PERIGEE,DECAYED
"GENERATED VIA SPACETRACK.ORG API","18 SPCS","48904","SPACEBEE-111","PAYLOAD","U","21059AB","2022-04-07 21:14:25","731456","15.15003616","0.0010222","97.5466","228.3065","352.5427","7.5651","0","999","4326","0.00078789","0.00014682","0","3392478","0 SPACEBEE-111","1 48904U 21059AB  22097.88502004  .00014682  00000-0  78789-3 0  9992","2 48904  97.5466 228.3065 0010222 352.5427   7.5651 15.15003616 43262","2021-059AB","48904","6899.105","95.049","528.022","513.917","1"
"GENERATED VIA SPACETRACK.ORG API","18 SPCS","48904","SPACEBEE-111","PAYLOAD","U","21059AB","2022-04-08 08:20:11","534208","15.15016416","0.0010181","97.5466","228.7655","351.1001","9.0049","0","999","4333","0.00074732","0.00013926","0","3393517","0 SPACEBEE-111","1 48904U 21059AB  22098.34735572  .00013926  00000-0  74732-3 0  9996","2 48904  97.5466 228.7655 0010181 351.1001   9.0049 15.15016416 43336","2021-059AB","48904","6899.066","95.048","527.955","513.907","1"
"GENERATED VIA SPACETRACK.ORG API","18 SPCS","48904","SPACEBEE-111","PAYLOAD","U","21059AB","2022-04-08 19:25:57","19008","15.1502661","0.0010134","97.5464","229.2244","349.4073","10.6944","0","999","4340","0.00063461","0.00011815","0","3393742","0 SPACEBEE-111","1 48904U 21059AB  22098.80968772  .00011815  00000-0  63461-3 0  9999","2 48904  97.5464 229.2244 0010134 349.4073  10.6944 15.15026610 43408","2021-059AB","48904","6899.035","95.048","527.891","513.908","1"
"GENERATED VIA SPACETRACK.ORG API","18 SPCS","48904","SPACEBEE-111","PAYLOAD","U","21059AB","2022-04-08 21:01:03","491040","15.1502829","0.0010132","97.5464","229.29","349.1721","10.9292","0","999","4341","0.00062645","0.00011663","0","3393990","0 SPACEBEE-111","1 48904U 21059AB  22098.87573485  .00011663  00000-0  62645-3 0  9993","2 48904  97.5464 229.2900 0010132 349.1721  10.9292 15.15028290 43418","2021-059AB","48904","6899.030","95.048","527.885","513.905","1"
"GENERATED VIA SPACETRACK.ORG API","18 SPCS","48904","SPACEBEE-111","PAYLOAD","U","21059AB","2022-04-09 14:27:14","245344","15.15047548","0.0010092","97.5463","230.0112","346.2904","13.8053","0","999","4352","0.00066037","0.00012306","0","3394949","0 SPACEBEE-111","1 48904U 21059AB  22099.60224821  .00012306  00000-0  66037-3 0  9996","2 48904  97.5463 230.0112 0010092 346.2904  13.8053 15.15047548 43524","2021-059AB","48904","6898.971","95.047","527.799","513.874","1"
"GENERATED VIA SPACETRACK.ORG API","18 SPCS","48904","SPACEBEE-111","PAYLOAD","U","21059AB","2022-04-10 07:53:24","197856","15.15066383","0.0010054","97.5461","230.7325","343.133","16.9566","0","999","4363","0.00062726","0.00011691","0","3395975","0 SPACEBEE-111","1 48904U 21059AB  22100.32875229  .00011691  00000-0  62726-3 0  9999","2 48904  97.5461 230.7325 0010054 343.1330  16.9566 15.15066383 43635","2021-059AB","48904","6898.914","95.045","527.715","513.843","1"
"GENERATED VIA SPACETRACK.ORG API","18 SPCS","48904","SPACEBEE-111","PAYLOAD","U","21059AB","2022-04-10 07:53:24","197856","15.15066383","0.0010054","97.5461","230.7325","343.133","16.9566","0","999","4363","0.00062726","0.00011691","0","3396223","0 SPACEBEE-111","1 48904U 21059AB  22100.32875229  .00011691  00000-0  62726-3 0  9999","2 48904  97.5461 230.7325 0010054 343.1330  16.9566 15.15066383 43635","2021-059AB","48904","6898.914","95.045","527.715","513.843","1"
"GENERATED VIA SPACETRACK.ORG API","18 SPCS","48904","SPACEBEE-111","PAYLOAD","U","21059AB","2022-04-10 20:34:14","514816","15.15082692","0.0010065","97.5459","231.257","340.7535","19.3316","0","999","4371","0.00068871","0.0001285","0","3396586","0 SPACEBEE-111","1 48904U 21059AB  22100.85711244  .00012850  00000-0  68871-3 0  9998","2 48904  97.5459 231.2570 0010065 340.7535  19.3316 15.15082692 43712","2021-059AB","48904","6898.865","95.044","527.673","513.786","1"
"GENERATED VIA SPACETRACK.ORG API","18 SPCS","48904","SPACEBEE-111","PAYLOAD","U","21059AB","2022-04-11 07:39:58","225824","15.15095407","0.0010024","97.546","231.716","339.1235","20.9586","0","999","4378","0.00069029","0.00012885","0","3397378","0 SPACEBEE-111","1 48904U 21059AB  22101.31942391  .00012885  00000-0  69029-3 0  9993","2 48904  97.5460 231.7160 0010024 339.1235  20.9586 15.15095407 43780","2021-059AB","48904","6898.826","95.044","527.606","513.776","1"
"GENERATED VIA SPACETRACK.ORG API","18 SPCS","48904","SPACEBEE-111","PAYLOAD","U","21059AB","2022-04-11 18:45:41","609376","15.15107525","0.0010023","97.5461","232.1749","337.3491","22.7297","0","999","4385","0.00068276","0.00012747","0","3397548","0 SPACEBEE-111","1 48904U 21059AB  22101.78173159  .00012747  00000-0  68276-3 0  9992","2 48904  97.5461 232.1749 0010023 337.3491  22.7297 15.15107525 43854","2021-059AB","48904","6898.789","95.043","527.569","513.739","1"
"GENERATED VIA SPACETRACK.ORG API","18 SPCS","48904","SPACEBEE-111","PAYLOAD","U","21059AB","2022-04-11 20:20:47","827392","15.15106471","0.0010019","97.5464","232.2409","337.089","22.9894","0","999","4386","0.00058456","0.00010901","0","3397723","0 SPACEBEE-111","1 48904U 21059AB  22101.84777578  .00010901  00000-0  58456-3 0  9993","2 48904  97.5464 232.2409 0010019 337.0890  22.9894 15.15106471 43861","2021-059AB","48904","6898.792","95.043","527.569","513.745","1"
"GENERATED VIA SPACETRACK.ORG API","18 SPCS","48904","SPACEBEE-111","PAYLOAD","U","21059AB","2022-04-12 07:26:30","994080","15.1511909","0.0009979","97.5467","232.7001","335.5896","24.4863","0","999","4393","0.0007173","0.00013401","0","3398537","0 SPACEBEE-111","1 48904U 21059AB  22102.31008095  .00013401  00000-0  71730-3 0  9995","2 48904  97.5467 232.7001 0009979 335.5896  24.4863 15.15119090 43931","2021-059AB","48904","6898.754","95.042","527.503","513.735","1"
"GENERATED VIA SPACETRACK.ORG API","18 SPCS","48904","SPACEBEE-111","PAYLOAD","U","21059AB","2022-04-12 21:42:25","998912","15.15134984","0.0009939","97.5466","233.2901","333.5185","26.5538","0","999","4402","0.00080319","0.00015024","0","3398892","0 SPACEBEE-111","1 48904U 21059AB  22102.90446758  .00015024  00000-0  80319-3 0  9998","2 48904  97.5466 233.2901 0009939 333.5185  26.5538 15.15134984 44022","2021-059AB","48904","6898.706","95.041","527.427","513.714","1"
"GENERATED VIA SPACETRACK.ORG API","18 SPCS","48904","SPACEBEE-111","PAYLOAD","U","21059AB","2022-04-13 04:02:50","372448","15.15137645","0.0009911","97.5469","233.5524","332.6197","27.4512","0","999","4406","0.00069897","0.00013063","0","3399120","0 SPACEBEE-111","1 48904U 21059AB  22103.16863857  .00013063  00000-0  69897-3 0  9999","2 48904  97.5469 233.5524 0009911 332.6197  27.4512 15.15137645 44065","2021-059AB","48904","6898.698","95.041","527.400","513.725","1"
"GENERATED VIA SPACETRACK.ORG API","18 SPCS","48904","SPACEBEE-111","PAYLOAD","U","21059AB","2022-04-13 07:13:02","495712","15.15141195","0.0009901","97.5469","233.6836","332.2904","27.7799","0","999","4408","0.00070088","0.000131","0","3399963","0 SPACEBEE-111","1 48904U 21059AB  22103.30072333  .00013100  00000-0  70088-3 0  9992","2 48904  97.5469 233.6836 0009901 332.2904  27.7799 15.15141195 44080","2021-059AB","48904","6898.687","95.041","527.382","513.722","1"
"GENERATED VIA SPACETRACK.ORG API","18 SPCS","48904","SPACEBEE-111","PAYLOAD","U","21059AB","2022-04-13 19:53:50","857440","15.15148759","0.0009838","97.5471","234.2082","330.5363","29.5313","0","999","4416","0.00053947","0.00010066","0","3400454","0 SPACEBEE-111","1 48904U 21059AB  22103.82906085  .00010066  00000-0  53947-3 0  9992","2 48904  97.5471 234.2082 0009838 330.5363  29.5313 15.15148759 44166","2021-059AB","48904","6898.664","95.040","527.316","513.742","1"
"GENERATED VIA SPACETRACK.ORG API","18 SPCS","48904","SPACEBEE-111","PAYLOAD","U","21059AB","2022-04-14 08:34:38","831232","15.15159698","0.0009784","97.5475","234.7327","328.691","31.3739","0","999","4424","0.00049857","0.00009299","0","3401270","0 SPACEBEE-111","1 48904U 21059AB  22104.35739388  .00009299  00000-0  49857-3 0  9992","2 48904  97.5475 234.7327 0009784 328.6910  31.3739 15.15159698 44249","2021-059AB","48904","6898.631","95.039","527.245","513.746","1"
"GENERATED VIA SPACETRACK.ORG API","18 SPCS","48904","SPACEBEE-111","PAYLOAD","U","21059AB","2022-04-14 08:34:38","831232","15.15159698","0.0009784","97.5475","234.7327","328.691","31.3739","0","999","4424","0.00049857","0.00009299","0","3401567","0 SPACEBEE-111","1 48904U 21059AB  22104.35739388  .00009299  00000-0  49857-3 0  9992","2 48904  97.5475 234.7327 0009784 328.6910  31.3739 15.15159698 44249","2021-059AB","48904","6898.631","95.039","527.245","513.746","1"
"GENERATED VIA SPACETRACK.ORG API","18 SPCS","48904","SPACEBEE-111","PAYLOAD","U","21059AB","2022-04-15 08:21:07","730496","15.15186007","0.0009692","97.5479","235.7164","325.236","34.8238","0","999","4439","0.00061786","0.00011552","0","3403095","0 SPACEBEE-111","1 48904U 21059AB  22105.34800614  .00011552  00000-0  61786-3 0  9993","2 48904  97.5479 235.7164 0009692 325.2360  34.8238 15.15186007 44395","2021-059AB","48904","6898.551","95.038","527.102","513.730","1"
"GENERATED VIA SPACETRACK.ORG API","18 SPCS","48904","SPACEBEE-111","PAYLOAD","U","21059AB","2022-04-15 21:01:54","522336","15.15199107","0.0009681","97.548","236.2411","323.0845","36.972","0","999","4447","0.00057363","0.00010723","0","3403262","0 SPACEBEE-111","1 48904U 21059AB  22105.87632549  .00010723  00000-0  57363-3 0  9996","2 48904  97.5480 236.2411 0009681 323.0845  36.9720 15.15199107 44473","2021-059AB","48904","6898.511","95.037","527.055","513.698","1"
